{"type": "FeatureCollection", "features": [ {"type": "Feature", "properties": {"norad_id": 28649, "name": "IRS-P5 (CARTOSAT-1)", "group": "resource", "lat": 79.69490515234918, "lon": -35.84260495871609, "alt_km": 588.579650376063, "timestamp": "2025-12-10T11:33:53.047701+00:00", "meta": {"OBJECT_NAME": "IRS-P5 (CARTOSAT-1)", "OBJECT_ID": "2005-017A", "EPOCH": "2025-12-09T19:04:50.908224", "MEAN_MOTION": 14.90389909, "ECCENTRICITY": 0.0001402, "INCLINATION": 97.5497, "RA_OF_ASC_NODE": 10.3388, "ARG_OF_PERICENTER": 46.4373, "MEAN_ANOMALY": 313.6962, "EPHEMERIS_TYPE": 0, "CLASSIFICATION_TYPE": "U", "NORAD_CAT_ID": 28649, "ELEMENT_SET_NO": 999, "REV_AT_EPOCH": 11560, "BSTAR": 0.00025861, "MEAN_MOTION_DOT": 2.466e-05, "MEAN_MOTION_DDOT": 0}, "tle": {"line1": "1 28649U 05017A   25343.79503366  .00002466  00000+0  25861-3 0  9990", "line2": "2 28649  97.5497  10.3388 0001402  46.4373 313.6962 14.90389909115604"}}, "geometry": {"type": "Point", "coordinates": [-35.84260495871609, 79.69490515234918]}}, {"type": "Feature", "properties": {"norad_id": 28893, "name": "SINAH 1", "group": "resource", "lat": -67.63200239372385, "lon": 133.70444224005647, "alt_km": 696.6991800698188, "timestamp": "2025-12-10T11:33:53.047712+00:00", "meta": {"OBJECT_NAME": "SINAH 1", "OBJECT_ID": "2005-043D", "EPOCH": "2025-12-10T03:40:45.044832", "MEAN_MOTION": 14.63957816, "ECCENTRICITY": 0.0015214, "INCLINATION": 98.2601, "RA_OF_ASC_NODE": 112.7036, "ARG_OF_PERICENTER": 144.6624, "MEAN_ANOMALY": 215.5589, "EPHEMERIS_TYPE": 0, "CLASSIFICATION_TYPE": "U", "NORAD_CAT_ID": 28893, "ELEMENT_SET_NO": 999, "REV_AT_EPOCH": 7286, "BSTAR": 0.00016041, "MEAN_MOTION_DOT": 7.92e-06, "MEAN_MOTION_DDOT": 0}, "tle": {"line1": "1 28893U 05043D   25344.15329913  .00000792  00000+0  16041-3 0  9995", "line2": "2 28893  98.2601 112.7036 0015214 144.6624 215.5589 14.63957816 72866"}}, "geometry": {"type": "Point", "coordinates": [133.70444224005647, -67.63200239372385]}}, {"type": "Feature", "properties": {"norad_id": 29079, "name": "EROS B", "group": "resource", "lat": 2.4673350850963085, "lon": -78.73218338645142, "alt_km": 369.7824301397477, "timestamp": "2025-12-10T11:33:53.047722+00:00", "meta": {"OBJECT_NAME": "EROS B", "OBJECT_ID": "2006-014A", "EPOCH": "2025-12-10T04:40:50.286144", "MEAN_MOTION": 15.67203604, "ECCENTRICITY": 0.0001723, "INCLINATION": 97.3477, "RA_OF_ASC_NODE": 100.6492, "ARG_OF_PERICENTER": 287.2793, "MEAN_ANOMALY": 72.8279, "EPHEMERIS_TYPE": 0, "CLASSIFICATION_TYPE": "U", "NORAD_CAT_ID": 29079, "ELEMENT_SET_NO": 999, "REV_AT_EPOCH": 9040, "BSTAR": 0.0018788, "MEAN_MOTION_DOT": 0.00205722, "MEAN_MOTION_DDOT": 0}, "tle": {"line1": "1 29079U 06014A   25344.19502646  .00205722  00000+0  18788-2 0  9990", "line2": "2 29079  97.3477 100.6492 0001723 287.2793  72.8279 15.67203604 90401"}}, "geometry": {"type": "Point", "coordinates": [-78.73218338645142, 2.4673350850963085]}}, {"type": "Feature", "properties": {"norad_id": 29228, "name": "RESURS-DK 1", "group": "resource", "lat": 0.9381484868170433, "lon": -72.66896846727006, "alt_km": 531.2483420662438, "timestamp": "2025-12-10T11:33:53.047733+00:00", "meta": {"OBJECT_NAME": "RESURS-DK 1", "OBJECT_ID": "2006-021A", "EPOCH": "2025-12-09T18:53:58.310016", "MEAN_MOTION": 15.12136626, "ECCENTRICITY": 0.0007519, "INCLINATION": 69.9336, "RA_OF_ASC_NODE": 109.4675, "ARG_OF_PERICENTER": 261.958, "MEAN_ANOMALY": 98.0733, "EPHEMERIS_TYPE": 0, "CLASSIFICATION_TYPE": "U", "NORAD_CAT_ID": 29228, "ELEMENT_SET_NO": 999, "REV_AT_EPOCH": 7393, "BSTAR": 0.00027732, "MEAN_MOTION_DOT": 4.688e-05, "MEAN_MOTION_DDOT": 0}, "tle": {"line1": "1 29228U 06021A   25343.78748044  .00004688  00000+0  27732-3 0  9990", "line2": "2 29228  69.9336 109.4675 0007519 261.9580  98.0733 15.12136626 73931"}}, "geometry": {"type": "Point", "coordinates": [-72.66896846727006, 0.9381484868170433]}}, {"type": "Feature", "properties": {"norad_id": 29268, "name": "ARIRANG-2 (KOMPSAT-2)", "group": "resource", "lat": -11.92715094835924, "lon": -8.600259451994384, "alt_km": 688.654505875129, "timestamp": "2025-12-10T11:33:53.047743+00:00", "meta": {"OBJECT_NAME": "ARIRANG-2 (KOMPSAT-2)", "OBJECT_ID": "2006-031A", "EPOCH": "2025-12-10T04:44:03.123168", "MEAN_MOTION": 14.64489381, "ECCENTRICITY": 0.0013642, "INCLINATION": 97.826, "RA_OF_ASC_NODE": 172.7939, "ARG_OF_PERICENTER": 317.8971, "MEAN_ANOMALY": 174.5676, "EPHEMERIS_TYPE": 0, "CLASSIFICATION_TYPE": "U", "NORAD_CAT_ID": 29268, "ELEMENT_SET_NO": 999, "REV_AT_EPOCH": 3381, "BSTAR": 8.9727e-05, "MEAN_MOTION_DOT": 4.31e-06, "MEAN_MOTION_DDOT": 0}, "tle": {"line1": "1 29268U 06031A   25344.19725837  .00000431  00000+0  89727-4 0  9991", "line2": "2 29268  97.8260 172.7939 0013642 317.8971 174.5676 14.64489381 33810"}}, "geometry": {"type": "Point", "coordinates": [-8.600259451994384, -11.92715094835924]}}, {"type": "Feature", "properties": {"norad_id": 29709, "name": "LAPAN-TUBSAT", "group": "resource", "lat": -44.9366510819057, "lon": -17.212121839072683, "alt_km": 623.8666535734346, "timestamp": "2025-12-10T11:33:53.047755+00:00", "meta": {"OBJECT_NAME": "LAPAN-TUBSAT", "OBJECT_ID": "2007-001A", "EPOCH": "2025-12-10T03:41:14.218656", "MEAN_MOTION": 14.85665726, "ECCENTRICITY": 0.0013723, "INCLINATION": 98.1257, "RA_OF_ASC_NODE": 334.2569, "ARG_OF_PERICENTER": 81.6564, "MEAN_ANOMALY": 278.6205, "EPHEMERIS_TYPE": 0, "CLASSIFICATION_TYPE": "U", "NORAD_CAT_ID": 29709, "ELEMENT_SET_NO": 999, "REV_AT_EPOCH": 2308, "BSTAR": 0.00014906, "MEAN_MOTION_DOT": 1.236e-05, "MEAN_MOTION_DDOT": 0}, "tle": {"line1": "1 29709U 07001A   25344.15363679  .00001236  00000+0  14906-3 0  9997", "line2": "2 29709  98.1257 334.2569 0013723  81.6564 278.6205 14.85665726 23082"}}, "geometry": {"type": "Point", "coordinates": [-17.212121839072683, -44.9366510819057]}}, {"type": "Feature", "properties": {"norad_id": 31113, "name": "HAIYANG-1B", "group": "resource", "lat": -73.97328958128124, "lon": -0.47430130836062206, "alt_km": 801.00873088968, "timestamp": "2025-12-10T11:33:53.047765+00:00", "meta": {"OBJECT_NAME": "HAIYANG-1B", "OBJECT_ID": "2007-010A", "EPOCH": "2025-12-09T20:49:01.643232", "MEAN_MOTION": 14.30963669, "ECCENTRICITY": 0.0014375, "INCLINATION": 98.3312, "RA_OF_ASC_NODE": 328.2642, "ARG_OF_PERICENTER": 45.9495, "MEAN_ANOMALY": 314.287, "EPHEMERIS_TYPE": 0, "CLASSIFICATION_TYPE": "U", "NORAD_CAT_ID": 31113, "ELEMENT_SET_NO": 999, "REV_AT_EPOCH": 97355, "BSTAR": 0.00010677, "MEAN_MOTION_DOT": 2.39e-06, "MEAN_MOTION_DDOT": 0}, "tle": {"line1": "1 31113U 07010A   25343.86738013  .00000239  00000+0  10677-3 0  9997", "line2": "2 31113  98.3312 328.2642 0014375  45.9495 314.2870 14.30963669973551"}}, "geometry": {"type": "Point", "coordinates": [-0.47430130836062206, -73.97328958128124]}}, {"type": "Feature", "properties": {"norad_id": 31598, "name": "COSMO-SKYMED 1", "group": "resource", "lat": -9.005750308372736, "lon": -11.392022081325338, "alt_km": 584.4202042299703, "timestamp": "2025-12-10T11:33:53.047776+00:00", "meta": {"OBJECT_NAME": "COSMO-SKYMED 1", "OBJECT_ID": "2007-023A", "EPOCH": "2025-12-10T04:18:01.366272", "MEAN_MOTION": 14.95732222, "ECCENTRICITY": 0.0001048, "INCLINATION": 97.8835, "RA_OF_ASC_NODE": 169.5618, "ARG_OF_PERICENTER": 84.7092, "MEAN_ANOMALY": 275.4248, "EPHEMERIS_TYPE": 0, "CLASSIFICATION_TYPE": "U", "NORAD_CAT_ID": 31598, "ELEMENT_SET_NO": 999, "REV_AT_EPOCH": 152, "BSTAR": 0.00047692, "MEAN_MOTION_DOT": 5.255e-05, "MEAN_MOTION_DDOT": 0}, "tle": {"line1": "1 31598U 07023A   25344.17918248  .00005255  00000+0  47692-3 0  9993", "line2": "2 31598  97.8835 169.5618 0001048  84.7092 275.4248 14.95732222  1524"}}, "geometry": {"type": "Point", "coordinates": [-11.392022081325338, -9.005750308372736]}}, {"type": "Feature", "properties": {"norad_id": 31698, "name": "TERRASAR-X", "group": "resource", "lat": 14.713788631525237, "lon": -12.072285309888123, "alt_km": 508.88682106930537, "timestamp": "2025-12-10T11:33:53.047786+00:00", "meta": {"OBJECT_NAME": "TERRASAR-X", "OBJECT_ID": "2007-026A", "EPOCH": "2025-12-09T11:47:13.204320", "MEAN_MOTION": 15.19146544, "ECCENTRICITY": 0.0001961, "INCLINATION": 97.4451, "RA_OF_ASC_NODE": 348.9193, "ARG_OF_PERICENTER": 86.8081, "MEAN_ANOMALY": 273.3378, "EPHEMERIS_TYPE": 0, "CLASSIFICATION_TYPE": "U", "NORAD_CAT_ID": 31698, "ELEMENT_SET_NO": 999, "REV_AT_EPOCH": 2442, "BSTAR": 0.00012751, "MEAN_MOTION_DOT": 2.611e-05, "MEAN_MOTION_DDOT": 0}, "tle": {"line1": "1 31698U 07026A   25343.49112505  .00002611  00000+0  12751-3 0  9994", "line2": "2 31698  97.4451 348.9193 0001961  86.8081 273.3378 15.19146544 24429"}}, "geometry": {"type": "Point", "coordinates": [-12.072285309888123, 14.713788631525237]}}, {"type": "Feature", "properties": {"norad_id": 32060, "name": "WORLDVIEW-1 (WV-1)", "group": "resource", "lat": -28.270392119069175, "lon": 105.99350600856329, "alt_km": 498.1494960115342, "timestamp": "2025-12-10T11:33:53.047796+00:00", "meta": {"OBJECT_NAME": "WORLDVIEW-1 (WV-1)", "OBJECT_ID": "2007-041A", "EPOCH": "2025-12-09T18:21:45.684576", "MEAN_MOTION": 15.24610182, "ECCENTRICITY": 7.28e-05, "INCLINATION": 97.3837, "RA_OF_ASC_NODE": 101.2881, "ARG_OF_PERICENTER": 104.1233, "MEAN_ANOMALY": 256.0086, "EPHEMERIS_TYPE": 0, "CLASSIFICATION_TYPE": "U", "NORAD_CAT_ID": 32060, "ELEMENT_SET_NO": 999, "REV_AT_EPOCH": 1402, "BSTAR": 0.0005059, "MEAN_MOTION_DOT": 0.00012417, "MEAN_MOTION_DDOT": 0}, "tle": {"line1": "1 32060U 07041A   25343.76511209  .00012417  00000+0  50590-3 0  9997", "line2": "2 32060  97.3837 101.2881 0000728 104.1233 256.0086 15.24610182 14026"}}, "geometry": {"type": "Point", "coordinates": [105.99350600856329, -28.270392119069175]}}]}